{
  "norad_id": 68868,
  "name": "KUIPER-00375",
  "history": [
    {
      "epoch": "2026-05-02T10:00:03.000096Z",
      "apogee_km": 452.55682684283875,
      "perigee_km": 450.16513664963077,
      "latitude_deg": 13.631933043273246,
      "longitude_deg": -97.58925587296788,
      "height_km": 451.13597491674915,
      "semi_major_axis_km": 6829.4979817462345,
      "eccentricity": 0.0001751,
      "inclination_deg": 51.8817,
      "raan_deg": 103.6659,
      "arg_perigee_deg": 84.1097,
      "mean_anomaly_deg": 78.4484,
      "mean_motion_rev_day": 15.38224026
    }
  ]
}