{"fetched_at":"2026-05-03T06:27:58Z","count":17151,"tles":[{"name":"KUIPER-00375","line1":"1 68868U 26095E   26122.41670139  .00070955  00000+0  18480-2 0  9990","line2":"2 68868  51.8817 103.6659 0001751  84.1097  78.4484 15.38224026  1875","category":"Other"}]}